[{"city": ["Mumbai 400001"], "locality": ["Veer Nariman Road, Fort"], "pincode": ["400001"], "lat": 18.9322949, "lng": 72.8341706, "sublocality": ["Elphinstone building, Horniman Circle,"]},
{"city": ["Mumbai 400001"], "locality": ["Apollo Bunder, Colaba"], "pincode": ["400001"], "lat": 18.9067031, "lng": 72.8147123, "sublocality": ["Hotel Taj Mahal Palace & Towers"]},
{"city": ["Mumbai 400063"], "locality": ["Goregaon (East)"], "pincode": ["400063"], "lat": 0.0, "lng": 0.0, "sublocality": ["Oberoi Mall, Off Western Express Highway"]},
{"city": ["Mumbai 400076"], "locality": ["Powai"], "pincode": ["400076"], "lat": 19.1160542, "lng": 72.9099198, "sublocality": ["Prudential Building , Hiranandani Gardens"]},
{"city": ["Mumbai 400013"], "locality": ["Elphinstone Road (West)"], "pincode": ["400013"], "lat": 19.00987, "lng": 72.8354433, "sublocality": ["Indiabulls Finance Centre"]},
{"city": ["Mumbai 400069"], "locality": ["Vile Parle (East)"], "pincode": ["400069"], "lat": 19.0963781, "lng": 72.8563994, "sublocality": ["Domestic Arrivals, Terminal 1B"]},
{"city": ["Mumbai 400064"], "locality": ["Malad (West)"], "pincode": ["400064"], "lat": 19.1848357, "lng": 72.8341212, "sublocality": ["Infiniti Mall, Link Road"]},
{"city": ["Mumbai 400086"], "locality": ["Ghatkopar (West)"], "pincode": ["400086"], "lat": 19.0996921, "lng": 72.91631149999999, "sublocality": ["R City Mall, LBS Marg"]},
{"city": ["Mumbai 400606"], "locality": ["Thane (West)"], "pincode": ["400606"], "lat": 0.0, "lng": 0.0, "sublocality": ["Korum Mall , Off Eastern Express highway"]},
{"city": ["Mumbai 400050"], "locality": ["Bandra (West)"], "pincode": ["400050"], "lat": 19.0521107, "lng": 72.8284889, "sublocality": ["Chapel Road, Reclamation"]},
{"city": ["Mumbai 400049 \u200e"], "locality": ["Juhu"], "pincode": ["400049"], "lat": 19.1003644, "lng": 72.82762249999999, "sublocality": ["Hotel Bawa Continental, Juhu Tara Road"]},
{"city": ["Mumbai 400606"], "locality": ["Thane (West)"], "pincode": ["400606"], "lat": 0.0, "lng": 0.0, "sublocality": ["Viviana Mall, Opp Eastern Express Highway"]},
{"city": ["Santacruz (West)"], "locality": ["Ramakrishna Mission Road, 15th Cross Road,"], "pincode": [], "lat": 0.0, "lng": 0.0, "sublocality": ["Backstage Building"]},
{"city": ["Mumbai 400051"], "locality": ["Bandra Kurla Complex"], "pincode": ["400051"], "lat": 19.0693723, "lng": 72.8697382, "sublocality": ["First International Financial Centre"]},
{"city": ["Kandivali (West)"], "locality": ["Mahavir Nagar"], "pincode": [], "lat": 0.0, "lng": 0.0, "sublocality": ["Ground Floor, B-2, V Souk, Sector 10, near Kamla Vihar Sports Club"]},
{"city": ["Mumbai 400021"], "locality": ["Nariman Point"], "pincode": ["400021"], "lat": 18.9255728, "lng": 72.8242221, "sublocality": ["Ground Floor, Nirmal Building, Opposite Trident Hotel"]},
{"city": ["Mumbai 400063"], "locality": ["Goregaon (E)"], "pincode": ["400063"], "lat": 0.0, "lng": 0.0, "sublocality": ["Ground floor, Nirlon Knowledge Park, Off Western Express Highway"]},
{"city": ["Mumbai 400030"], "locality": ["Prabhadevi"], "pincode": ["400030"], "lat": 0.0, "lng": 0.0, "sublocality": ["First floor, Century Bhavan"]},
{"city": ["Mumbai 400013"], "locality": ["Lower Parel"], "pincode": ["400013"], "lat": 18.9937055, "lng": 72.8248651, "sublocality": ["High Street Phoenix Mall, Senapati Bapat Marg"]},
{"city": ["Mumbai 400053"], "locality": ["Andheri (West)"], "pincode": ["400053"], "lat": 19.1363246, "lng": 72.82766, "sublocality": ["Ground Floor, Infiniti Mall, Raheja Classic Complex"]},
{"city": ["Mumbai 400053"], "locality": ["Andheri (West)"], "pincode": ["400053"], "lat": 19.130799, "lng": 72.825514, "sublocality": ["Four bunglows, Kokilaben hospital"]},
{"city": ["Mumbai 400007"], "locality": ["Girgaon Chowpatty"], "pincode": ["400007"], "lat": 0.0, "lng": 0.0, "sublocality": ["Shree Krishna Hindu Merchant Club, Next to Wilson College, Chowpatty Road"]},
{"city": ["Mumbai 400070"], "locality": ["Kurla (West)"], "pincode": ["400070"], "lat": 0.0, "lng": 0.0, "sublocality": ["First Floor, Phoenix Market City, LBS Marg"]},
{"city": ["New Delhi 110037"], "locality": ["Indira Gandhi Domestic Terminal \u00a03"], "pincode": ["110037"], "lat": 0.0, "lng": 0.0, "sublocality": ["Domestic Departure near Gate 17"]},
{"city": ["New Delhi 110037"], "locality": ["Indira Gandhi International Terminal 3"], "pincode": ["110037"], "lat": 0.0, "lng": 0.0, "sublocality": ["International Departure near Gate 15 A"]},
{"city": ["New Delhi 110001"], "locality": ["Connaught Place"], "pincode": ["110001"], "lat": 28.6328721, "lng": 77.21845929999999, "sublocality": ["A Block, Inner Circle"]},
{"city": ["New Delhi 110017"], "locality": ["Saket"], "pincode": ["110017"], "lat": 28.5284472, "lng": 77.21922889999999, "sublocality": ["Select City Walk Mall"]},
{"city": ["New Delhi 110070"], "locality": ["Vasant Kunj"], "pincode": ["110070"], "lat": 0.0, "lng": 0.0, "sublocality": ["Ambience Mall, Nelson Mandela Marg"]},
{"city": ["Timings: 10:00-00:00 hrs (Mon-Sun)"], "locality": ["New Delhi 110048"], "pincode": [], "lat": 28.5515234, "lng": 77.23726789999999, "sublocality": ["M Block, Greater Kailash 1"]},
{"city": ["New Delhi 110019"], "locality": ["Nehru Place"], "pincode": ["110019"], "lat": 28.551328, "lng": 77.251759, "sublocality": ["Lower Ground Floor,Nehru Place Metro Station"]},
{"city": ["New Delhi 110026"], "locality": ["Punjabi Bagh"], "pincode": ["110026"], "lat": 0.0, "lng": 0.0, "sublocality": ["Ground Floor, Club Road"]},
{"city": ["New Delhi 110034"], "locality": ["Netaji Subhash Place, Pitampura"], "pincode": ["110034"], "lat": 28.6960924, "lng": 77.1527405, "sublocality": ["Ground Floor, HB Twin Towers"]},
{"city": ["New Delhi 110001"], "locality": ["Connaught place"], "pincode": ["110001"], "lat": 28.6339656, "lng": 77.222759, "sublocality": ["N 16, N Block, Outer Circle"]},
{"city": ["New Delhi 110048"], "locality": ["Greater Kailash 2"], "pincode": ["110048"], "lat": 0.0, "lng": 0.0, "sublocality": ["Ground Floor, M-block"]},
{"city": ["New Delhi 110024"], "locality": ["Lajpat Nagar"], "pincode": ["110024"], "lat": 28.569229, "lng": 77.24177259999999, "sublocality": ["Central Market"]},
{"city": ["New Delhi 110017"], "locality": ["Kamla Nagar"], "pincode": ["110017"], "lat": 0.0, "lng": 0.0, "sublocality": ["First Floor, Spark, MLCP"]},
{"city": ["New Delhi 110070"], "locality": ["Vasant Kunj"], "pincode": ["110070"], "lat": 0.0, "lng": 0.0, "sublocality": ["First Floor, DLF Promenade"]},
{"city": ["New Delhi 110018"], "locality": ["Subhash Nagar"], "pincode": ["110018"], "lat": 0.0, "lng": 0.0, "sublocality": ["Ground Floor, Pacific Mall"]},
{"city": ["New Delhi 110037"], "locality": ["Indira Gandhi International Terminal 1D"], "pincode": ["110037"], "lat": 0.0, "lng": 0.0, "sublocality": ["Domestic Departure"]},
{"city": ["Gurgaon 122001"], "locality": ["Gurgaon, Haryana"], "pincode": ["122001"], "lat": 28.5037867, "lng": 77.0972752, "sublocality": ["Ambience Mall"]},
{"city": ["Timings: 10:00-23:00 hrs (Mon-Sun)"], "locality": ["Gurgaon 122002"], "pincode": [], "lat": 28.474679, "lng": 77.1048978, "sublocality": ["No- 39, \u00a0opp Reliance Mart, Sector 29"]},
{"city": ["Gurgaon 122002"], "locality": ["DLF Cybercity"], "pincode": ["122002"], "lat": 0.0, "lng": 0.0, "sublocality": ["Sector 25, DLF Cyber Hub"]},
{"city": ["Gurgaon 122009"], "locality": ["HUDA Metro Station"], "pincode": ["122009"], "lat": 0.0, "lng": 0.0, "sublocality": ["Ground Floor, South Wing"]},
{"city": ["Gurgaon  122002"], "locality": ["Sohna Road"], "pincode": ["122002"], "lat": 0.0, "lng": 0.0, "sublocality": ["Ground Floor, Vatika Business Park, Sector 49"]},
{"city": ["Gurgaon  122002"], "locality": ["M G Road"], "pincode": ["122002"], "lat": 0.0, "lng": 0.0, "sublocality": ["Upper Ground Floor, MGF Metropolis"]},
{"city": ["Pune 411001"], "locality": ["Koregaon Park"], "pincode": ["411001"], "lat": 18.5390798, "lng": 73.886657, "sublocality": ["Galaxy Gardens, North Main Road"]},
{"city": ["Timings: 10:00-23:00 hrs (Mon-Sun)"], "locality": ["Pune 411028"], "pincode": [], "lat": 18.5149325, "lng": 73.9261587, "sublocality": ["Ground Floor, Amanora Mall"]},
{"city": ["Pune 411014"], "locality": ["Viman Nagar"], "pincode": ["411014"], "lat": 0.0, "lng": 0.0, "sublocality": ["Ground floor, Phoenix Market City"]},
{"city": ["Pune 411007"], "locality": ["ITI Road, Aundh"], "pincode": ["411007"], "lat": 0.0, "lng": 0.0, "sublocality": ["Ground floor, Centriole"]},
{"city": ["Pune 411028"], "locality": ["Hadapsar"], "pincode": ["411028"], "lat": 18.5158057, "lng": 73.9271644, "sublocality": ["First Floor, Seasons Mall, Magarpatta city"]},
{"city": ["Pune 411014"], "locality": ["Kharadi"], "pincode": ["411014"], "lat": 0.0, "lng": 0.0, "sublocality": ["EON Free Zone, MIDC, Kharadi Knowledge Park"]},
{"city": ["Pune 411004"], "locality": ["FC Road "], "pincode": ["411004"], "lat": 0.0, "lng": 0.0, "sublocality": ["Mosaic Ground Floor West, Opposite Fergusson College Gate No.2"]},
{"city": ["Bengaluru 560095"], "locality": ["Koramangala"], "pincode": ["560095"], "lat": 12.9279232, "lng": 77.62710779999999, "sublocality": ["Real Square Building, Opposite Raheja Arcade"]},
{"city": ["Bengaluru 560048"], "locality": ["Mahadevapura"], "pincode": ["560048"], "lat": 33.4483771, "lng": -112.0740373, "sublocality": ["Phoenix Market City, Whitefield Road"]},
{"city": ["Bengaluru 560055"], "locality": ["Malleswaram"], "pincode": ["560055"], "lat": 13.0030624, "lng": 77.56429279999999, "sublocality": ["Brigade Orion Mall, Dr Rajkumar Road"]},
{"city": ["Bengaluru 560001"], "locality": ["Church Street"], "pincode": ["560001"], "lat": 0.0, "lng": 0.0, "sublocality": ["Ground Floor, Prestige RR Building"]},
{"city": ["Bengaluru 560016"], "locality": ["Benniganahalli", "\r\n"], "pincode": ["560016"], "lat": 0.0, "lng": 0.0, "sublocality": ["RMZ Infinity, #3 Old Madras Rd"]},
{"city": ["Bengaluru 560008"], "locality": ["Indiranagar", "\r\n"], "pincode": ["560008"], "lat": 12.9339887, "lng": 77.623667, "sublocality": ["100 FT Road"]},
{"city": ["Bengaluru 560078"], "locality": ["JP Nagar", "\r\n"], "pincode": ["560078"], "lat": 12.9038507, "lng": 77.59710869999999, "sublocality": ["100 Feet Ring Road, HBCS layout,4th Phase"]},
{"city": ["Bengaluru 560080"], "locality": ["Sadashiv Nagar", "\r\n"], "pincode": ["560080"], "lat": 13.0101779, "lng": 77.5777031, "sublocality": ["Ground Floor, 8th Main Road"]},
{"city": ["Chennai 600042"], "locality": ["Velachery"], "pincode": ["600042"], "lat": 12.9914032, "lng": 80.21649409999999, "sublocality": ["Phoenix Marketcity, Velachery Main Road"]},
{"city": ["Chennai 600040"], "locality": ["Anna Nagar West "], "pincode": ["600040"], "lat": 0.0, "lng": 0.0, "sublocality": ["TBR Tower, Y Block, 2nd Avenue, Near Ayyappa Temple"]},
{"city": ["Chennai 600014"], "locality": ["Whites Road, Royapettah"], "pincode": ["600014"], "lat": 13.0576239, "lng": 80.2615422, "sublocality": ["Ground Floor, Express Avenue Mall"]},
{"city": ["Hyderabad 500033"], "locality": ["Jubilee Hills"], "pincode": ["500033"], "lat": 17.4158533, "lng": 78.4136305, "sublocality": ["Road No. 92, Near Apollo hospital"]},
{"city": ["Hyderabad 500034"], "locality": ["Kukatpally"], "pincode": ["500034"], "lat": 17.4947934, "lng": 78.3996441, "sublocality": ["Upper Ground Floor, Forum Sujana Mall, Opposite Malaysian Township"]},
{"city": ["Hyderabad 500081"], "locality": ["Madhapur Village"], "pincode": ["500081"], "lat": 17.6295585, "lng": 78.7717061, "sublocality": ["Upper Ground Floor, Phoenix tower A, Opposite Trident hotel"]},
{"city": ["Hyderabad 500081"], "locality": ["Madhapur"], "pincode": ["500081"], "lat": 17.4482929, "lng": 78.3914851, "sublocality": ["Lower Ground Floor, Inorbit Mall"]},
{"city": ["Hyderabad 500034"], "locality": ["Banjara Hills"], "pincode": ["500034"], "lat": 17.4138277, "lng": 78.4397584, "sublocality": ["Lower Ground Floor, GVK Mall"]}]